{
  "norad_id": 58304,
  "name": "FLOCK 4Q-29",
  "history": [
    {
      "epoch": "2026-05-02T04:29:33.459648Z",
      "apogee_km": 410.84611672703795,
      "perigee_km": 405.40896157826774,
      "latitude_deg": -2.0264698018908576e-06,
      "longitude_deg": -75.05664843024334,
      "height_km": 409.993630894576,
      "semi_major_axis_km": 6786.264539152652,
      "eccentricity": 0.0004006,
      "inclination_deg": 97.393,
      "raan_deg": 212.4416,
      "arg_perigee_deg": 297.9277,
      "mean_anomaly_deg": 62.157,
      "mean_motion_rev_day": 15.52946822
    },
    {
      "epoch": "2026-05-03T17:36:24.352416Z",
      "apogee_km": 410.6095456828243,
      "perigee_km": 405.1115304774703,
      "latitude_deg": 5.4276618631471143e-05,
      "longitude_deg": 88.30066364525496,
      "height_km": 410.0291321315706,
      "semi_major_axis_km": 6785.997538080147,
      "eccentricity": 0.0004051,
      "inclination_deg": 97.3928,
      "raan_deg": 214.0352,
      "arg_perigee_deg": 290.6888,
      "mean_anomaly_deg": 69.3931,
      "mean_motion_rev_day": 15.53038476
    },
    {
      "epoch": "2026-05-04T18:20:53.911104Z",
      "apogee_km": 410.45675745017707,
      "perigee_km": 404.93037703621485,
      "latitude_deg": -3.595643844375042e-05,
      "longitude_deg": 77.22331144443018,
      "height_km": 410.1127708098441,
      "semi_major_axis_km": 6785.830567243196,
      "eccentricity": 0.0004072,
      "inclination_deg": 97.3926,
      "raan_deg": 215.0971,
      "arg_perigee_deg": 285.1226,
      "mean_anomaly_deg": 74.9576,
      "mean_motion_rev_day": 15.53095797
    },
    {
      "epoch": "2026-05-05T19:05:19.478112Z",
      "apogee_km": 410.26215850901553,
      "perigee_km": 404.69116969078914,
      "latitude_deg": -3.2342513869560113e-05,
      "longitude_deg": 66.16292429654669,
      "height_km": 410.1113236925275,
      "semi_major_axis_km": 6785.613664099902,
      "eccentricity": 0.0004105,
      "inclination_deg": 97.3922,
      "raan_deg": 216.1593,
      "arg_perigee_deg": 280.4595,
      "mean_anomaly_deg": 79.6195,
      "mean_motion_rev_day": 15.53170265
    },
    {
      "epoch": "2026-05-06T18:16:55.000416Z",
      "apogee_km": 410.150776719247,
      "perigee_km": 404.4889914951473,
      "latitude_deg": -2.9085980178877283e-05,
      "longitude_deg": 78.30809967737856,
      "height_km": 410.17806791672893,
      "semi_major_axis_km": 6785.456884107197,
      "eccentricity": 0.0004172,
      "inclination_deg": 97.3921,
      "raan_deg": 217.155,
      "arg_perigee_deg": 275.7249,
      "mean_anomaly_deg": 84.3528,
      "mean_motion_rev_day": 15.53224095
    },
    {
      "epoch": "2026-05-07T17:28:28.227072Z",
      "apogee_km": 410.08961893378273,
      "perigee_km": 404.31122558498646,
      "latitude_deg": 8.480813478202229e-05,
      "longitude_deg": 90.46315244153585,
      "height_km": 410.31265068726117,
      "semi_major_axis_km": 6785.337422259385,
      "eccentricity": 0.0004258,
      "inclination_deg": 97.3924,
      "raan_deg": 218.151,
      "arg_perigee_deg": 270.5659,
      "mean_anomaly_deg": 89.5107,
      "mean_motion_rev_day": 15.53265114
    },
    {
      "epoch": "2026-05-08T12:01:40.986912Z",
      "apogee_km": 410.0017782786472,
      "perigee_km": 404.162418722477,
      "latitude_deg": -6.291089810586052e-05,
      "longitude_deg": 172.19473615433233,
      "height_km": 410.367241257489,
      "semi_major_axis_km": 6785.219098500562,
      "eccentricity": 0.0004303,
      "inclination_deg": 97.3923,
      "raan_deg": 218.9477,
      "arg_perigee_deg": 267.1684,
      "mean_anomaly_deg": 92.9076,
      "mean_motion_rev_day": 15.53305744
    }
  ]
}